[{"OBJECT_NAME":"STARLINK-5148","OBJECT_ID":"2022-125Q","EPOCH":"2026-03-09T16:34:41.389248","MEAN_MOTION":15.08837461,"ECCENTRICITY":0.00013977,"INCLINATION":53.2168,"RA_OF_ASC_NODE":219.0316,"ARG_OF_PERICENTER":87.1186,"MEAN_ANOMALY":272.9966,"EPHEMERIS_TYPE":0,"CLASSIFICATION_TYPE":"U","NORAD_CAT_ID":53978,"ELEMENT_SET_NO":999,"REV_AT_EPOCH":18939,"BSTAR":-5.100158e-6,"MEAN_MOTION_DOT":-3.69e-6,"MEAN_MOTION_DDOT":0},{"OBJECT_NAME":"KUIPER-00164","OBJECT_ID":"2025-301B","EPOCH":"2026-03-09T22:00:01.999584","MEAN_MOTION":15.08488187,"ECCENTRICITY":0.00045568,"INCLINATION":51.8847,"RA_OF_ASC_NODE":66.2292,"ARG_OF_PERICENTER":84.8156,"MEAN_ANOMALY":198.9561,"EPHEMERIS_TYPE":0,"CLASSIFICATION_TYPE":"U","NORAD_CAT_ID":67134,"ELEMENT_SET_NO":999,"REV_AT_EPOCH":541,"BSTAR":0.00024752424,"MEAN_MOTION_DOT":3.618e-5,"MEAN_MOTION_DDOT":0}]
